0 THORAD AGENA D DEB
1 06767U 70025NF  22183.14341163  .00001003  00000-0  74247-3 0  9990
2 06767  99.0640  74.5745 0018963 239.8489 120.0795 13.97558782914988
0 THORAD AGENA D DEB
1 06766U 70025NH  22182.50111519  .00000513  00000-0  36601-3 0  9995
2 06766 100.1837  35.4257 0085029  10.1025 350.1821 14.01108133632357
0 THORAD AGENA D DEB
1 06765U 70025NG  22182.27534372  .00000086  00000-0  18974-3 0  9992
2 06765  99.7750 102.3109 0016150 354.9272 156.6942 13.54806227574708
0 THORAD AGENA D DEB
1  6765U 70025NG  22183.23627413  .00000082  00000-0  18490-3 0  9997
2  6765  99.7749 103.2614 0016091 352.6858 163.2865 13.54806493575294
0 COSMOS 249 DEB
1 06764U 68091CK  22183.76384365  .00000475  00000-0  14519-2 0  9993
2 06764  62.3369  25.5247 0786130  90.5902 356.9032 12.37581707546238
0 COSMOS 249 DEB
1 06752U 68091CJ  22182.49148918  .00000102  00000-0  18795-3 0  9999
2 06752  62.2781 210.7962 0668247 178.7083 181.5849 13.07773352469432
0 COSMOS 249 DEB
1  6752U 68091CJ  22182.03271853  .00000145  00000-0  23073-3 0  9996
2  6752  62.2783 211.9523 0668302 178.6036 181.7043 13.07773152469716
0 THOR ABLESTAR DEB
1 06748U 61015KN  22182.81590459  .00001475  00000-0  77706-3 0  9991
2 06748  66.9010  77.7495 0082915 306.5552  52.7928 14.14968847 85018
0 THOR ABLESTAR DEB
1 06747U 61015KM  22183.90126083  .00000200  00000-0  19781-3 0  9993
2 06747  66.6004 125.0450 0134359  84.9028 276.7370 13.93218716 90104
0 SL-8 R/B
1  6708U 73042B   22183.44124150 -.00000001  00000-0 -17359-4 0  9996
2  6708  82.9460 137.2481 0014030 130.9186 350.6456 13.74275291457729
0 SL-8 R/B
1 06708U 73042B   22182.91802087  .00000000  00000-0 -15776-4 0  9998
2 06708  82.9459 137.6350 0014013 132.2720 282.1732 13.74275321457355
0 COSMOS 574
1  6707U 73042A   22183.52581201  .00000025  00000-0  11610-4 0  9996
2  6707  82.9489 178.7113 0020134 305.4762 174.5252 13.72216265892670
0 COSMOS 574
1 06707U 73042A   22183.75536690  .00000025  00000-0  11294-4 0  9991
2 06707  82.9489 178.5423 0020115 304.7989 228.5612 13.72216263892436
0 SL-8 R/B
1 06683U 73037J   22182.36973959  .00000035  00000-0  40897-3 0  9998
2 06683  74.0188 143.0450 0070808 156.8975 317.9968 12.32115958206800
0 COSMOS 571
1 06682U 73037H   22183.86330017  .00000005  00000-0  11003-3 0  9999
2 06682  74.0191  81.1061 0102412 101.9323 327.4812 12.65884579267391
0 COSMOS 570
1 06681U 73037G   22182.49063728 -.00000020  00000-0 -18637-4 0  9998
2 06681  74.0160 191.8206 0092680 232.6818 295.6604 12.63493139262916
0 COSMOS 569
1 06680U 73037F   22182.79107126 -.00000005  00000-0  64773-4 0  9995
2 06680  74.0199 298.2441 0079207 352.2698 120.4232 12.61139730258712
0 COSMOS 568
1 06679U 73037E   22183.90605910 -.00000003  00000-0  73943-4 0  9998
2 06679  74.0192  37.3222 0067150 107.8838   1.5354 12.58916120254875
0 COSMOS 568
1  6679U 73037E   22182.07982604  .00000007  00000-0  13420-3 0  9999
2  6679  74.0193  39.7917 0067162 110.6990   4.8415 12.58916070254886
0 COSMOS 567
1 06678U 73037D   22182.91848561  .00000007  00000-0  14201-3 0  9992
2 06678  74.0182 256.3260 0045334   7.5071 107.3711 12.54071767246017
0 COSMOS 566
1 06677U 73037C   22183.56908434 -.00000024  00000-0 -51954-4 0  9997
2 06677  74.0196   2.8600 0031326 132.9788 284.3528 12.51670319241581
0 COSMOS 566
1  6677U 73037C   22183.65173715 -.00000025  00000-0 -59600-4 0  9990
2  6677  74.0196   2.7497 0031324 132.8544 296.7873 12.51670306241879
0 COSMOS 565
1 06676U 73037B   22183.91417152 -.00000005  00000-0  72520-4 0  9997
2 06676  74.0182 123.9482 0026388 297.1720 120.5199 12.48937615237064
0 COSMOS 564
1 06675U 73037A   22182.39057321 -.00000030  00000-0 -83112-4 0  9993
2 06675  74.0175 144.9616 0055609 230.3969 250.4998 12.56574477250538
0 COSMOS 564
1  6675U 73037A   22183.67594847 -.00000018  00000-0 -10416-4 0  9997
2  6675  74.0176 143.2312 0055603 228.4739 305.0793 12.56574471250894
0 SL-3 R/B
1 06660U 73034B   22183.88139548  .00000152  00000-0  84705-4 0  9993
2 06660  81.2311  22.6692 0046390 316.0052  43.7427 14.05898350516891
0 SL-3 R/B
1  6660U 73034B   22182.10219210  .00000196  00000-0  11158-3 0  9991
2  6660  81.2310  24.3921 0046541 321.0274  38.7543 14.05897794516911
0 METEOR 1-15
1 06659U 73034A   22182.55816060  .00000016  00000-0  18336-5 0  9992
2 06659  81.1884 223.5235 0027213 170.4222 189.7473 14.10004166523522
0 SL-8 DEB
1 06396U 72104D   22183.88104329  .00001930  00000-0  19923-3 0  9999
2 06396  74.1101 244.0896 0004493 133.5770 226.5786 14.90938159635299
0 SL-3 R/B
1 06393U 73015B   22182.89571592  .00000072  00000-0  35845-4 0  9996
2 06393  81.2564 333.9821 0059406 143.3732 217.1520 14.05069015525208
0 METEOR 1-14
1  6392U 73015A   22182.20310487 -.00000026  00000-0 -22258-4 0  9999
2  6392  81.2365 252.9837 0046676 310.7090  49.0029 14.07633696529322
0 METEOR 1-14
1 06392U 73015A   22183.55363434 -.00000024  00000-0 -21354-4 0  9992
2 06392  81.2364 251.6734 0046712 306.7761  52.9125 14.07633563529282
0 COSMOS 546
1  6350U 73005A   22182.81927089  .00000954  00000-0  56816-4 0  9996
2  6350  50.6478  16.2670 0014554  95.3917 264.8706 15.21162446721882
0 COSMOS 546
1 06350U 73005A   22182.55649917  .00000980  00000-0  57961-4 0  9999
2 06350  50.6477  17.5402 0014558  94.3723 265.8904 15.21161731722413
0 SL-8 R/B
1 06324U 72104B   22183.75995589  .00000109  00000-0  39999-4 0  9995
2 06324  74.0783 292.6142 0009936 313.9024  46.1312 14.43648872601024
0 COSMOS 540
1  6323U 72104A   22182.19127404  .00000057  00000-0  28291-4 0  9999
2  6323  74.0798 233.1747 0018628 213.1879 146.8108 14.36561990591438
0 COSMOS 540
1 06323U 72104A   22182.53946822  .00000058  00000-0  28637-4 0  9995
2 06323  74.0798 232.5366 0018614 212.4982 147.5027 14.36562034591214
0 SL-8 R/B
1  6320U 72102B   22183.66933472  .00000023  00000-0  18541-3 0  9996
2  6320  74.0155  49.4779 0023988 119.9027 296.4092 12.76961932308902
0 SL-8 R/B
1 06320U 72102B   22182.81096796  .00000021  00000-0  17320-3 0  9993
2 06320  74.0156  50.6779 0023988 121.2840 310.4164 12.76961835308567
0 COSMOS 539
1 06319U 72102A   22183.89940404 -.00000007  00000-0  46108-4 0  9996
2 06319  74.0167 123.5453 0024334 214.9295 201.8375 12.75396666305901
0 DELTA 1 R/B
1 06306U 72097B   22183.51414663 -.00000039  00000-0 -25922-5 0  9995
2 06306  99.7596  24.4301 0269267 228.5598 184.6452 12.88424075330116
0 NIMBUS 5
1  6305U 72097A   22183.50132644 -.00000029  00000-0  26461-4 0  9995
2  6305  99.9023  91.0675 0009216  81.9377  91.9045 13.44150879430770
0 NIMBUS 5
1 06305U 72097A   22182.58626626 -.00000029  00000-0  26015-4 0  9995
2 06305  99.9024  90.1675 0009221  84.0022 344.1479 13.44150853430370
0 SL-8 DEB
1 06289U 69024C   22182.50022681 -.00000096  00000-0 -17070-3 0  9990
2 06289  73.9880 358.4013 0011626  68.1978   0.4490 13.27058439573511
0 SCOUT B-1 DEB
1 06284U 72069D   22182.47175666  .00000500  00000-0  92724-4 0  9994
2 06284  90.4946 263.3265 0043367 226.9290 132.8291 14.63657907536035
0 SCOUT B-1 DEB
1  6284U 72069D   22182.19828671  .00000521  00000-0  96669-4 0  9999
2  6284  90.4946 263.3100 0043333 227.9292 131.8234 14.63657678535994
0 SL-8 DEB
1 06277U 72062C   22182.89134269  .00000033  00000-0  16163-4 0  9993
2 06277  82.8551  37.8243 0004813 304.9616  68.1641 13.83332375505526
0 SL-8 DEB
1  6277U 72062C   22183.35789831  .00000031  00000-0  14081-4 0  9991
2  6277  82.8551  37.4693 0004794 303.3698 231.8839 13.83332392505833
0 THOR BURNER 2 R/B
1  6276U 72089B   22183.12580688  .00000011  00000-0  24447-4 0  9998
2  6276  98.5184  13.2925 0035825 325.8805  34.0070 14.21347414571136
0 THOR BURNER 2 R/B
1 06276U 72089B   22183.54817969  .00000013  00000-0  25432-4 0  9996
2 06276  98.5184  13.7000 0035797 324.6169  35.2634 14.21347496570951
0 OPS 7323 (DMSP 5B F3)
1 06275U 72089A   22183.54160750  .00000096  00000-0  55336-4 0  9991
2 06275  98.4429   9.3782 0034417 255.4246 104.3117 14.28090924578213
0 SL-8 R/B
1 06271U 72087J   22182.50093086  .00000006  00000-0  16510-3 0  9998
2 06271  74.0423  80.5871 0079623  47.1245 125.3836 12.34528527238063
0 SL-8 R/B
1  6271U 72087J   22183.47327538  .00000005  00000-0  15549-3 0  9997
2  6271  74.0422  79.3328 0079636  45.6962 126.7840 12.34528533238593
0 COSMOS 535
1 06270U 72087H   22183.88477362 -.00000006  00000-0  56235-4 0  9992
2 06270  74.0357  46.0248 0054013  73.0031 298.8557 12.59315826283081
0 COSMOS 534
1 06269U 72087G   22182.57537531 -.00000009  00000-0  41452-4 0  9998
2 06269  74.0326 210.1230 0076689 205.9314 273.5394 12.63637158290899
0 COSMOS 533
1 06268U 72087F   22182.92209699 -.00000017  00000-0 -66557-6 0  9992
2 06268  74.0357  28.2633 0097540 359.9336 109.4157 12.67570473298038
0 COSMOS 532
1  6267U 72087E   22183.78155750  .00000011  00000-0  13776-3 0  9998
2  6267  74.0361 288.8472 0108396 243.4216 235.4618 12.69697273302211
0 COSMOS 532
1 06267U 72087E   22183.78155750  .00000011  00000-0  13776-3 0  9998
2 06267  74.0361 288.8472 0108396 243.4216 235.4618 12.69697273301838
0 COSMOS 531
1 06266U 72087D   22182.67088791  .00000010  00000-0  15940-3 0  9998
2 06266  74.0345 254.1892 0031518 317.3453 160.3523 12.54769282274829
0 COSMOS 531
1  6266U 72087D   22182.17228529  .00000010  00000-0  16347-3 0  9990
2  6266  74.0346 254.8574 0031510 318.0945  68.0871 12.54769279275029
0 COSMOS 530
1 06265U 72087C   22183.26048149  .00000001  00000-0  90797-4 0  9990
2 06265  74.0348 117.3224 0086374  99.5792  14.1928 12.65635878294647
0 COSMOS 529
1 06264U 72087B   22183.33998719 -.00000013  00000-0  16133-4 0  9990
2 06264  74.0335 143.9610 0042179 181.4608 333.2527 12.57177984279281
0 COSMOS 528
1 06262U 72087A   22182.47859275 -.00000017  00000-0 -12405-5 0  9999
2 06262  74.0352 304.8203 0065616 311.4972 115.5137 12.61576562287337
0 COSMOS 528
1  6262U 72087A   22182.10546266 -.00000011  00000-0  29714-4 0  9995
2  6262  74.0364 305.3267 0065613 312.0610 220.8870 12.61576544287311
